{"type": "FeatureCollection", "features": [ {"type": "Feature", "properties": {"norad_id": 33153, "name": "INTELSAT 25 (IS-25)", "group": "intelsat", "lat": 2.2095823904540057, "lon": 165.00424028525194, "alt_km": 35788.7623126123, "timestamp": "2025-12-14T07:33:19.145844+00:00", "meta": {"OBJECT_NAME": "INTELSAT 25 (IS-25)", "OBJECT_ID": "2008-034A", "EPOCH": "2025-12-13T11:35:16.459296", "MEAN_MOTION": 1.00271725, "ECCENTRICITY": 0.00049673, "INCLINATION": 2.2298, "RA_OF_ASC_NODE": 82.642, "ARG_OF_PERICENTER": 180.3175, "MEAN_ANOMALY": 321.7821, "EPHEMERIS_TYPE": 0, "CLASSIFICATION_TYPE": "U", "NORAD_CAT_ID": 33153, "ELEMENT_SET_NO": 999, "REV_AT_EPOCH": 6383, "BSTAR": 0, "MEAN_MOTION_DOT": -2.09e-06, "MEAN_MOTION_DDOT": 0}, "tle": {"line1": "1 33153U 08034A   25347.48282939 -.00000209  00000+0  00000+0 0  9996", "line2": "2 33153   2.2298  82.6420 0004967 180.3175 321.7821  1.00271725 63832"}}, "geometry": {"type": "Point", "coordinates": [165.00424028525194, 2.2095823904540057]}}, {"type": "Feature", "properties": {"norad_id": 33376, "name": "GALAXY 19 (G-19)", "group": "intelsat", "lat": 0.035818345434992516, "lon": 99.54214058401595, "alt_km": 35797.23748277495, "timestamp": "2025-12-14T07:33:19.145856+00:00", "meta": {"OBJECT_NAME": "GALAXY 19 (G-19)", "OBJECT_ID": "2008-045A", "EPOCH": "2025-12-13T14:41:58.578720", "MEAN_MOTION": 1.00269784, "ECCENTRICITY": 0.00025657, "INCLINATION": 0.0192, "RA_OF_ASC_NODE": 2.8724, "ARG_OF_PERICENTER": 263.6324, "MEAN_ANOMALY": 299.5303, "EPHEMERIS_TYPE": 0, "CLASSIFICATION_TYPE": "U", "NORAD_CAT_ID": 33376, "ELEMENT_SET_NO": 999, "REV_AT_EPOCH": 6304, "BSTAR": 0, "MEAN_MOTION_DOT": 0, "MEAN_MOTION_DDOT": 0}, "tle": {"line1": "1 33376U 08045A   25347.61248355  .00000000  00000+0  00000+0 0  9992", "line2": "2 33376   0.0192   2.8724 0002565 263.6324 299.5303  1.00269784 63044"}}, "geometry": {"type": "Point", "coordinates": [99.54214058401595, 0.035818345434992516]}}, {"type": "Feature", "properties": {"norad_id": 35493, "name": "FM-5", "group": "intelsat", "lat": 0.00926616195977285, "lon": 110.4065750237076, "alt_km": 35784.15592006618, "timestamp": "2025-12-14T07:33:19.145869+00:00", "meta": {"OBJECT_NAME": "FM-5", "OBJECT_ID": "2009-034A", "EPOCH": "2025-12-13T04:28:45.829056", "MEAN_MOTION": 1.00271954, "ECCENTRICITY": 7.249e-05, "INCLINATION": 0.0178, "RA_OF_ASC_NODE": 291.2415, "ARG_OF_PERICENTER": 229.2636, "MEAN_ANOMALY": 262.6658, "EPHEMERIS_TYPE": 0, "CLASSIFICATION_TYPE": "U", "NORAD_CAT_ID": 35493, "ELEMENT_SET_NO": 999, "REV_AT_EPOCH": 4477, "BSTAR": 0, "MEAN_MOTION_DOT": -1.87e-06, "MEAN_MOTION_DDOT": 0}, "tle": {"line1": "1 35493U 09034A   25347.18664154 -.00000187  00000+0  00000+0 0  9991", "line2": "2 35493   0.0178 291.2415 0000724 229.2636 262.6658  1.00271954 44775"}}, "geometry": {"type": "Point", "coordinates": [110.4065750237076, 0.00926616195977285]}}, {"type": "Feature", "properties": {"norad_id": 36097, "name": "INTELSAT 14 (IS-14)", "group": "intelsat", "lat": 0.017575675325550252, "lon": 151.53697020193482, "alt_km": 35790.66046296546, "timestamp": "2025-12-14T07:33:19.145881+00:00", "meta": {"OBJECT_NAME": "INTELSAT 14 (IS-14)", "OBJECT_ID": "2009-064A", "EPOCH": "2025-12-13T11:31:24.330144", "MEAN_MOTION": 1.00272102, "ECCENTRICITY": 0.0002467, "INCLINATION": 0.0177, "RA_OF_ASC_NODE": 37.7189, "ARG_OF_PERICENTER": 229.9207, "MEAN_ANOMALY": 302.6303, "EPHEMERIS_TYPE": 0, "CLASSIFICATION_TYPE": "U", "NORAD_CAT_ID": 36097, "ELEMENT_SET_NO": 999, "REV_AT_EPOCH": 5874, "BSTAR": 0, "MEAN_MOTION_DOT": -2.59e-06, "MEAN_MOTION_DDOT": 0}, "tle": {"line1": "1 36097U 09064A   25347.48014271 -.00000259  00000+0  00000+0 0  9997", "line2": "2 36097   0.0177  37.7189 0002467 229.9207 302.6303  1.00272102 58743"}}, "geometry": {"type": "Point", "coordinates": [151.53697020193482, 0.017575675325550252]}}, {"type": "Feature", "properties": {"norad_id": 36106, "name": "INTELSAT 15 (IS-15)", "group": "intelsat", "lat": -0.016425005664671224, "lon": -78.2849461819182, "alt_km": 35776.52751651667, "timestamp": "2025-12-14T07:33:19.145893+00:00", "meta": {"OBJECT_NAME": "INTELSAT 15 (IS-15)", "OBJECT_ID": "2009-067A", "EPOCH": "2025-12-13T15:34:01.094592", "MEAN_MOTION": 1.00272235, "ECCENTRICITY": 0.00022805, "INCLINATION": 0.0169, "RA_OF_ASC_NODE": 298.5038, "ARG_OF_PERICENTER": 332.2116, "MEAN_ANOMALY": 130.521, "EPHEMERIS_TYPE": 0, "CLASSIFICATION_TYPE": "U", "NORAD_CAT_ID": 36106, "ELEMENT_SET_NO": 999, "REV_AT_EPOCH": 3936, "BSTAR": 0, "MEAN_MOTION_DOT": -1.7e-06, "MEAN_MOTION_DDOT": 0}, "tle": {"line1": "1 36106U 09067A   25347.64862378 -.00000170  00000+0  00000+0 0  9990", "line2": "2 36106   0.0169 298.5038 0002280 332.2116 130.5210  1.00272235 39364"}}, "geometry": {"type": "Point", "coordinates": [-78.2849461819182, -0.016425005664671224]}}, {"type": "Feature", "properties": {"norad_id": 36131, "name": "DIRECTV 12", "group": "intelsat", "lat": 0.006745429861867633, "lon": 93.84816820994403, "alt_km": 35786.178154596455, "timestamp": "2025-12-14T07:33:19.145906+00:00", "meta": {"OBJECT_NAME": "DIRECTV 12", "OBJECT_ID": "2009-075A", "EPOCH": "2025-12-13T14:40:21.235296", "MEAN_MOTION": 1.00272672, "ECCENTRICITY": 4.856e-05, "INCLINATION": 0.0277, "RA_OF_ASC_NODE": 147.8107, "ARG_OF_PERICENTER": 206.4221, "MEAN_ANOMALY": 205.6821, "EPHEMERIS_TYPE": 0, "CLASSIFICATION_TYPE": "U", "NORAD_CAT_ID": 36131, "ELEMENT_SET_NO": 999, "REV_AT_EPOCH": 4469, "BSTAR": 0, "MEAN_MOTION_DOT": -8.8e-07, "MEAN_MOTION_DDOT": 0}, "tle": {"line1": "1 36131U 09075A   25347.61135689 -.00000088  00000+0  00000+0 0  9990", "line2": "2 36131   0.0277 147.8107 0000485 206.4221 205.6821  1.00272672 44698"}}, "geometry": {"type": "Point", "coordinates": [93.84816820994403, 0.006745429861867633]}}, {"type": "Feature", "properties": {"norad_id": 36397, "name": "INTELSAT 16 (IS-16)", "group": "intelsat", "lat": 0.012183722019072689, "lon": 120.34816209286045, "alt_km": 35793.11778026093, "timestamp": "2025-12-14T07:33:19.145918+00:00", "meta": {"OBJECT_NAME": "INTELSAT 16 (IS-16)", "OBJECT_ID": "2010-006A", "EPOCH": "2025-12-13T13:05:15.342144", "MEAN_MOTION": 1.00271986, "ECCENTRICITY": 0.00020301, "INCLINATION": 0.0086, "RA_OF_ASC_NODE": 321.155, "ARG_OF_PERICENTER": 304.0608, "MEAN_ANOMALY": 297.3804, "EPHEMERIS_TYPE": 0, "CLASSIFICATION_TYPE": "U", "NORAD_CAT_ID": 36397, "ELEMENT_SET_NO": 999, "REV_AT_EPOCH": 5779, "BSTAR": 0, "MEAN_MOTION_DOT": -2.3e-06, "MEAN_MOTION_DDOT": 0}, "tle": {"line1": "1 36397U 10006A   25347.54531646 -.00000230  00000+0  00000+0 0  9994", "line2": "2 36397   0.0086 321.1550 0002030 304.0608 297.3804  1.00271986 57792"}}, "geometry": {"type": "Point", "coordinates": [120.34816209286045, 0.012183722019072689]}}, {"type": "Feature", "properties": {"norad_id": 37185, "name": "XM-5", "group": "intelsat", "lat": 0.02855237313682305, "lon": 81.34894798365129, "alt_km": 35783.1650451662, "timestamp": "2025-12-14T07:33:19.145929+00:00", "meta": {"OBJECT_NAME": "XM-5", "OBJECT_ID": "2010-053A", "EPOCH": "2025-12-13T09:45:51.253344", "MEAN_MOTION": 1.00272483, "ECCENTRICITY": 0.00016369, "INCLINATION": 0.0606, "RA_OF_ASC_NODE": 273.0003, "ARG_OF_PERICENTER": 235.4668, "MEAN_ANOMALY": 325.1445, "EPHEMERIS_TYPE": 0, "CLASSIFICATION_TYPE": "U", "NORAD_CAT_ID": 37185, "ELEMENT_SET_NO": 999, "REV_AT_EPOCH": 5562, "BSTAR": 0, "MEAN_MOTION_DOT": -9e-08, "MEAN_MOTION_DDOT": 0}, "tle": {"line1": "1 37185U 10053A   25347.40684321 -.00000009  00000+0  00000+0 0  9990", "line2": "2 37185   0.0606 273.0003 0001636 235.4668 325.1445  1.00272483 55622"}}, "geometry": {"type": "Point", "coordinates": [81.34894798365129, 0.02855237313682305]}}, {"type": "Feature", "properties": {"norad_id": 37238, "name": "INTELSAT 17 (IS-17)", "group": "intelsat", "lat": -0.023712371109520125, "lon": -97.43852388231007, "alt_km": 35775.56507073933, "timestamp": "2025-12-14T07:33:19.145945+00:00", "meta": {"OBJECT_NAME": "INTELSAT 17 (IS-17)", "OBJECT_ID": "2010-065B", "EPOCH": "2025-12-13T15:28:31.621152", "MEAN_MOTION": 1.0027154, "ECCENTRICITY": 0.00024982, "INCLINATION": 0.0064, "RA_OF_ASC_NODE": 323.398, "ARG_OF_PERICENTER": 302.4861, "MEAN_ANOMALY": 114.8302, "EPHEMERIS_TYPE": 0, "CLASSIFICATION_TYPE": "U", "NORAD_CAT_ID": 37238, "ELEMENT_SET_NO": 999, "REV_AT_EPOCH": 5138, "BSTAR": 0, "MEAN_MOTION_DOT": 1.4e-07, "MEAN_MOTION_DDOT": 0}, "tle": {"line1": "1 37238U 10065B   25347.64481043  .00000014  00000+0  00000+0 0  9999", "line2": "2 37238   0.0064 323.3980 0002498 302.4861 114.8302  1.00271540 51386"}}, "geometry": {"type": "Point", "coordinates": [-97.43852388231007, -0.023712371109520125]}}, {"type": "Feature", "properties": {"norad_id": 37392, "name": "INTELSAT 28 (IS-28)", "group": "intelsat", "lat": 1.3043569167743774, "lon": 164.833857231864, "alt_km": 35788.944873639, "timestamp": "2025-12-14T07:33:19.145970+00:00", "meta": {"OBJECT_NAME": "INTELSAT 28 (IS-28)", "OBJECT_ID": "2011-016A", "EPOCH": "2025-12-13T11:35:08.971008", "MEAN_MOTION": 1.00273036, "ECCENTRICITY": 0.00037543, "INCLINATION": 1.3266, "RA_OF_ASC_NODE": 85.0457, "ARG_OF_PERICENTER": 181.9304, "MEAN_ANOMALY": 317.5438, "EPHEMERIS_TYPE": 0, "CLASSIFICATION_TYPE": "U", "NORAD_CAT_ID": 37392, "ELEMENT_SET_NO": 999, "REV_AT_EPOCH": 5142, "BSTAR": 0, "MEAN_MOTION_DOT": -2.1e-06, "MEAN_MOTION_DDOT": 0}, "tle": {"line1": "1 37392U 11016A   25347.48274272 -.00000210  00000+0  00000+0 0  9992", "line2": "2 37392   1.3266  85.0457 0003754 181.9304 317.5438  1.00273036 51423"}}, "geometry": {"type": "Point", "coordinates": [164.833857231864, 1.3043569167743774]}}]}